[{"OBJECT_NAME":"BANE","OBJECT_ID":"2023-185D","EPOCH":"2026-03-09T22:38:54.916224","MEAN_MOTION":15.6846319,"ECCENTRICITY":0.00050193,"INCLINATION":97.3445,"RA_OF_ASC_NODE":151.472,"ARG_OF_PERICENTER":176.385,"MEAN_ANOMALY":183.7448,"EPHEMERIS_TYPE":0,"CLASSIFICATION_TYPE":"U","NORAD_CAT_ID":58465,"ELEMENT_SET_NO":999,"REV_AT_EPOCH":12713,"BSTAR":0.00097597303,"MEAN_MOTION_DOT":0.00111172,"MEAN_MOTION_DDOT":0},{"OBJECT_NAME":"STARLINK-11533 [DTC]","OBJECT_ID":"2025-019H","EPOCH":"2026-03-09T16:00:03.000096","MEAN_MOTION":15.70811034,"ECCENTRICITY":0.00017421,"INCLINATION":43.0008,"RA_OF_ASC_NODE":306.2032,"ARG_OF_PERICENTER":270.3896,"MEAN_ANOMALY":182.0103,"EPHEMERIS_TYPE":0,"CLASSIFICATION_TYPE":"U","NORAD_CAT_ID":62836,"ELEMENT_SET_NO":999,"REV_AT_EPOCH":599,"BSTAR":0.00020549045,"MEAN_MOTION_DOT":0.00025969,"MEAN_MOTION_DDOT":0}]
